{"type":"FeatureCollection","features":[{"type":"Feature","geometry":{"type":"MultiPolygon","coordinates":[[[[-0.3499999999999999,53.55],[-0.0157332628110631,53.55037044305508],[-0.022472257654845788,53.55500027600195],[-0.025861103448176815,53.56000140202033],[-0.029194409397608145,53.56327819617306],[-0.0325277823581813,53.56502916547509],[-0.03247219155801243,53.565807306341284],[-0.03836108078110647,53.56791688452081],[-0.040000035410979476,53.567890173931666],[-0.04916663133086125,53.572444917028896],[-0.049222219898031855,53.573307077091336],[-0.05166663877155519,53.573722816759],[-0.059249956368264016,53.58080669663178],[-0.06175004199328408,53.58208469244546],[-0.06499997141395598,53.58208462685057],[-0.06591663312364773,53.58000181429387],[-0.06258333248177207,53.57833483493094],[-0.06255558530586545,53.577472691874625],[-0.06333337962185348,53.5770835727163],[-0.06919440585617224,53.579971311166396],[-0.06755556713540027,53.582500443677446],[-0.0700277342839962,53.58291625709579],[-0.07416665687451834,53.57997131236303],[-0.07419439891901983,53.57666782585508],[-0.0842221872805891,53.57330700937343],[-0.08502773006321596,53.57122040528028],[-0.08669447645313631,53.57372284144803],[-0.09341666686463504,53.57372283065019],[-0.09424998225044626,53.57413861875247],[-0.09338893028120746,53.57541653833695],[-0.08169440330012087,53.575359341816615],[-0.07750002758833997,53.57749939305813],[-0.07750003641164477,53.57913973141011],[-0.07413891747094403,53.58163831395884],[-0.07413885538530685,53.58336256856658],[-0.07086107840370075,53.584972391895455],[-0.07505554865172959,53.58541491831806],[-0.07922224098060278,53.58330538848255],[-0.07913889237062664,53.58163833974854],[-0.08336107294013412,53.578777306554734],[-0.08838893485119859,53.579582199377725],[-0.09174997547217209,53.58119586124581],[-0.09505559278969639,53.58041764533802],[-0.09669445744425613,53.58291622179956],[-0.10341663994092591,53.58458327970731],[-0.10502777568287397,53.586223610728986],[-0.10750001559453455,53.586612738699294],[-0.10752774455227462,53.58747101137614],[-0.11922217771053664,53.593360933202284],[-0.1191666748445024,53.594139075232626],[-0.13086115313751562,53.5999717972274],[-0.13252783135351576,53.60247041694994],[-0.1367221754113691,53.60541532009242],[-0.1383610687917458,53.6053886573987],[-0.14338887671831926,53.60786057967028],[-0.14502772509057155,53.607887277006924],[-0.14588891102640958,53.609111751730865],[-0.1508611118367287,53.61249922128932],[-0.15088888592937535,53.613304156257605],[-0.16174998568751162,53.61875151700766],[-0.16330555708665928,53.61872098621339],[-0.1716667004923903,53.62291719506337],[-0.17338889001609545,53.62291719765739],[-0.1749999825161135,53.62455370220971],[-0.17675000981025166,53.62458419028873],[-0.18333334856539255,53.627944907713264],[-0.1850555752270725,53.627861032117984],[-0.18841670482913053,53.629581439817755],[-0.1900555105263409,53.62958141714373],[-0.19258332612183354,53.62747195096345],[-0.19091665745368946,53.626640323228344],[-0.19508329332909327,53.624553717687505],[-0.1975832901754305,53.625804916897565],[-0.195888880080421,53.626693707001756],[-0.19588887071882005,53.62827685303243],[-0.1925555143893896,53.62919613810902],[-0.19258336626214184,53.63163759355603],[-0.2033889151736487,53.6370277229532],[-0.20520960661391915,53.63760166453587],[-0.20752780346381933,53.638332333332635],[-0.21086116363476484,53.64166640531373],[-0.2141944285877438,53.64333347422486],[-0.21586108608473592,53.645832038397884],[-0.217500014284633,53.64747238605131],[-0.22005550586007724,53.64786151158846],[-0.2208333527685241,53.649139398652714],[-0.22419439887589845,53.650806386499205],[-0.22922222415136279,53.657501211351025],[-0.23091665653383328,53.658332841747516],[-0.2308888630007576,53.65999986820168],[-0.2341944850423298,53.66247175270289],[-0.23413890716866115,53.663333911340324],[-0.2375277361003165,53.66413879831693],[-0.2374722550653705,53.66500089457997],[-0.24249999950527737,53.66749955549449],[-0.2425555401897142,53.668304418215165],[-0.24580552727207874,53.66999815484555],[-0.2508611273143217,53.67494583348077],[-0.25086106123143714,53.67666625758877],[-0.2542221783167018,53.67827603760512],[-0.25416668677134674,53.679138219095],[-0.2574999678763067,53.68080524342933],[-0.2608610535528949,53.68413924038883],[-0.2608332751127333,53.685806260338644],[-0.2658611724534042,53.68997192974165],[-0.26588887786043724,53.692470569111386],[-0.26922227636665197,53.69580457440957],[-0.2692222420956284,53.697471623555586],[-0.27588887659679767,53.701667824667695],[-0.27916664244614553,53.705806712446986],[-0.28588886510316713,53.70916749461109],[-0.2858332892109658,53.7099456599327],[-0.29338892250500764,53.71372225394433],[-0.29666668451170003,53.713748948920646],[-0.29836114373293054,53.71286012417416],[-0.30002779369262417,53.71374895538953],[-0.3117222420990035,53.712943995409134],[-0.31341665231697935,53.71205521500363],[-0.326694463582743,53.712081877494846],[-0.3283889230611144,53.71125030765311],[-0.333388941317707,53.71125026482933],[-0.33497227376225197,53.71036150682553],[-0.3383611127891908,53.710388158611735],[-0.3400277380030554,53.70958332366956],[-0.3499999999999999,53.708334019472],[-0.3499999999999999,53.55]]],[[[-0.35,53.73224483986095],[-0.3467499487040905,53.732887308019436],[-0.34258328317042747,53.73497393989921],[-0.34172218408867194,53.736221341442565],[-0.34005553162754176,53.73538967533175],[-0.33836107846278585,53.73619460872833],[-0.3349722346115159,53.73625185513812],[-0.33333330720247606,53.73791499780295],[-0.3317500385910638,53.7370834635384],[-0.32838889021520845,53.73705669972774],[-0.3216666376308786,53.73952862197684],[-0.3200833512442307,53.73869327568312],[-0.3150832937952743,53.740417514734744],[-0.3066944951332704,53.74039080890374],[-0.3050277698461636,53.7395553857324],[-0.30163893698201677,53.73961260380322],[-0.29916667933810503,53.74080661987701],[-0.2991389376437532,53.742443104901376],[-0.30255560419897576,53.743278467898044],[-0.3017499726712453,53.74541851250441],[-0.29838887879641884,53.74541854782413],[-0.295861142744705,53.744140640384664],[-0.29586113715264606,53.74250029883173],[-0.29166663789655045,53.74039074290776],[-0.28002780217905304,53.74036025589148],[-0.2783333828438522,53.73958204523333],[-0.2766944059386002,53.7395553763352],[-0.27422223471310353,53.740806559382364],[-0.2774722484684865,53.74247358092513],[-0.27672225561943625,53.74372103841087],[-0.2650277487576498,53.74288941333215],[-0.2616944646457492,53.742053966229236],[-0.26086113389833715,53.7416381706172],[-0.26166667343999733,53.741279641478016],[-0.27005556281275345,53.741222346021345],[-0.274222179202923,53.739139560555856],[-0.2716666584390471,53.737083412772215],[-0.26502783215919967,53.735389699547746],[-0.2616666381699904,53.73544307857254],[-0.2600833003867946,53.73455427615547],[-0.25505558170838855,53.73461147997076],[-0.2525555472816663,53.73333361453144],[-0.25249998276299135,53.732498199291506],[-0.2500277541411026,53.73208233906312],[-0.24669448874019737,53.7345848337605],[-0.24588886509703844,53.73080446758974],[-0.24416663939470362,53.72916792836039],[-0.23752777078304388,53.72752765220745],[-0.2374999774718654,53.717472077706205],[-0.23583329850869877,53.716693862281],[-0.2358333487608058,53.71497344962926],[-0.23416662631533422,53.71413807020106],[-0.23088884418880556,53.70994564323187],[-0.2275277694172705,53.708332058567],[-0.22747226392538883,53.70747374261571],[-0.22002773654025845,53.703693369712965],[-0.21838885890628268,53.703723906627225],[-0.20749999062209742,53.698333756947875],[-0.2075555790940517,53.69747163054793],[-0.20419441484702106,53.695804559279715],[-0.20425002951696053,53.694946267591206],[-0.17922221966581306,53.682472258338024],[-0.17916664633840518,53.68161007710041],[-0.1742500025066706,53.679164871469695],[-0.1741944277159023,53.67830661187373],[-0.1691667009798292,53.67580416265663],[-0.1658333772902682,53.67247389152148],[-0.16258332617761292,53.6708335859821],[-0.1592222314445888,53.66663740614463],[-0.15586107644459402,53.664970404915785],[-0.15252774542555184,53.66164015648977],[-0.14422223116207278,53.656639105038316],[-0.14416669038921423,53.65583415751601],[-0.1408610781276731,53.655029274021935],[-0.14091665403475678,53.65416717268475],[-0.13508331621267403,53.65122221558787],[-0.1325000210967607,53.650833113740944],[-0.13247226278857807,53.64830399458524],[-0.13080555699394783,53.647472379678895],[-0.13086113137286032,53.646610285945464],[-0.11005560344379087,53.63624951559255],[-0.10841668971361439,53.63624951983819],[-0.10338893845154029,53.633720416339386],[-0.09669440905521927,53.63208390234482],[-0.08838886015145779,53.631195062506215],[-0.0833333207439383,53.62952804681363],[-0.07669440335815053,53.62955478605782],[-0.07502774140608041,53.62874987300012],[-0.06502782237782365,53.62874984166447],[-0.06336109078892901,53.627918248943075],[-0.055000014897361116,53.62791824082287],[-0.05005556015057403,53.63122180359402],[-0.038361133081450234,53.63375088971372],[-0.035083374980859415,53.63377759467764],[-0.03172218715695269,53.635387437415766],[-0.02836108622010744,53.63538745239653],[-0.026666710694844536,53.63619610885195],[-0.023388903368036104,53.63622282578283],[-0.016750009318998966,53.63788983865212],[-0.01005552149814572,53.64125060196378],[-0.0017222483729519332,53.64122390138755],[-4.832544309093834E-8,53.642028772165496],[0.0066666879949952825,53.64205553146868],[0.008333348419287767,53.64288715662815],[0.014972256809212126,53.642887090578625],[0.01997221327883692,53.64541623769406],[0.02161109063736518,53.645389586698464],[0.028305531528160274,53.64869307658034],[0.03494443734744132,53.64869306307568],[0.04499998574974703,53.64619444569118],[0.04836111976133952,53.646221158853784],[0.05833333340897913,53.64372253019555],[0.06161111496364176,53.64369584820172],[0.06330557900307997,53.6428871145255],[0.06994445335044494,53.642887148303416],[0.07163892971848533,53.64205549352605],[0.07500004677078918,53.64208220291984],[0.08497223886898173,53.63788985100661],[0.0866110802906584,53.63791653155173],[0.09000002225607204,53.636222843873824],[0.09997219144234859,53.63372041898336],[0.10663889409596514,53.63041688928509],[0.10916667306537772,53.629943821907915],[0.10991671019753914,53.62872315129298],[0.11163887867404575,53.628749823389406],[0.12744443986714968,53.62080385572361],[0.127527764676747,53.619945506095334],[0.13577781232109426,53.61580657360114],[0.13583335542309655,53.61500167995652],[0.14577775495312623,53.60994342349502],[0.1458333150031479,53.607471492271095],[0.14741662706206468,53.60666654913749],[0.1474721977129653,53.601638786211794],[0.1440832992653287,53.599109687128404],[0.14411110981126557,53.597499857997555],[0.14077773773826138,53.59416579633583],[0.13577774421320607,53.59166717118996],[0.13583333885518667,53.59080504587724],[0.12747226936472758,53.586666103342246],[0.12744446852184574,53.585803962277716],[0.12252774015256757,53.58327862770226],[0.12247222619302237,53.5824737852684],[0.11913889551118932,53.58080675253096],[0.11916662741806448,53.57913967476121],[0.1091666425732534,53.57497404946041],[0.10913885777298461,53.5741119547043],[0.10747222328110767,53.57333376168336],[0.1099999646348959,53.571220412154176],[0.11580556993447488,53.573307011135334],[0.11913891832701308,53.5766372962457],[0.12419443837154512,53.57830428281789],[0.12413890397450526,53.579166425699846],[0.13083330319357078,53.58247379258034],[0.13077781529483257,53.58330534577465],[0.13744441522760548,53.58661272069592],[0.13749998406147168,53.587471037758334],[0.14249998603818448,53.59000017813463],[0.14244444885511168,53.59077837963425],[0.1490832852661525,53.594944016495354],[0.15077775925204137,53.596637712283005],[0.15080558009524805,53.59914016623852],[0.15247220361342337,53.5999984819767],[0.1524722189249639,53.60997393212112],[0.15080559040236843,53.61080551947554],[0.15080551510760096,53.61330417846239],[0.14913890128348337,53.61413957942924],[0.14916665901075493,53.616638147915594],[0.14747224611192566,53.617473596678536],[0.1475277458388357,53.62083438619153],[0.1458333013594301,53.62163928461492],[0.14580557920856496,53.62494276427576],[0.14411113471194045,53.62583163801326],[0.1441944072494578,53.62749862157763],[0.1424999685818048,53.62830734425397],[0.14250001774010757,53.63002778397464],[0.13919440931504745,53.63330456506708],[0.1391111268527928,53.63580703327343],[0.13580553112202068,53.639167774481216],[0.13583338503949585,53.643333438588286],[0.13413884539591275,53.64413832566031],[0.13416665860736948,53.646667471681795],[0.13247220875130983,53.64747237011855],[0.1324444212192224,53.649139378586064],[0.12911110522312588,53.651611348618054],[0.12913892244360195,53.65247349097532],[0.12244444049332692,53.65916825234755],[0.12247224062656482,53.661609686303436],[0.11747225617488878,53.66577912257548],[0.11741670282442118,53.666637457728804],[0.11247218268572826,53.669944773914466],[0.11244444845484938,53.6716651853251],[0.10916669924714487,53.67330553560868],[0.10411114014043295,53.678306556221685],[0.09077777765451625,53.68747331984834],[0.09083328972769371,53.68833163640076],[0.0808333059411484,53.69499972249545],[0.07919439398576834,53.696666677147185],[0.07916665191915842,53.69830703604828],[0.07577780794043232,53.70000079834204],[0.07241667840657226,53.70413970254621],[0.06577775166884023,53.70833202993994],[0.06580553429912396,53.70919416396459],[0.057500037648387375,53.71497347252196],[0.05744440793054381,53.71583175190201],[0.05247217587089042,53.71833421658155],[0.05250001406231013,53.71913913055952],[0.04586115544564036,53.723304781315704],[0.044138919979571575,53.72583390910631],[0.04074998799679539,53.72747036155758],[0.04083336143314188,53.7291107533254],[0.03583335145468717,53.7316093299792],[0.035805529811823736,53.733333590196054],[0.032416686397508505,53.73497393927006],[0.029138868663614984,53.739166293596284],[0.022499953544729893,53.74327852323951],[0.02086115631987862,53.745803821018804],[0.01583332016650901,53.74911116014024],[0.015749957623253097,53.749973281717125],[0.0075000271049837945,53.75502775229964],[0.004194400583019737,53.758304584762406],[0.004166694410921282,53.75994491920561],[7.778168926858355E-4,53.7616386683038],[8.332982539267221E-4,53.763305645780655],[-4.8541054154251584E-8,53.76372146746647],[-0.008388935223081616,53.767917651385524],[-0.010861064478014083,53.76833346269745],[-0.01088889272272797,53.769195537967384],[-0.015888912881962636,53.77244567976088],[-0.01580557544088647,53.77330400611545],[-0.024138855645742745,53.77830508400413],[-0.02422225583252087,53.77997207502634],[-0.03086113480539075,53.78413769296212],[-0.030833299958961155,53.78583141524861],[-0.03747224745920076,53.79000087740372],[-0.045805580821309096,53.79916766915501],[-0.050916631328900265,53.80327606143204],[-0.0508611117842427,53.804138222715935],[-0.06419447069462643,53.81333161646526],[-0.07416665184730145,53.824195874331416],[-0.07752778783982246,53.82580566571276],[-0.07916662183266057,53.828304303626865],[-0.08252777892809533,53.830001866829],[-0.0841943979201486,53.832473790301876],[-0.08755551992285328,53.834167493447886],[-0.09088890024992913,53.837501489270466],[-0.0958332848187553,53.844139116063474],[-0.10419445290521463,53.849109638151646],[-0.10416668558921473,53.85083389455017],[-0.10752777065669022,53.85247042295518],[-0.10919446319628512,53.85502626420385],[-0.11255551789248625,53.85663986554325],[-0.11422226806737322,53.85913850111189],[-0.11588885378159967,53.85997389143969],[-0.11586110516694452,53.8616943313879],[-0.1274999956765022,53.872470826677834],[-0.1291666917668412,53.875026721490535],[-0.13252777534047383,53.876640349529154],[-0.13247222885486934,53.877498642354766],[-0.13922219707190703,53.88330456447771],[-0.13919442935595186,53.885028845240235],[-0.14088888429548177,53.885807009702674],[-0.14083337631830134,53.886665325040525],[-0.14413887929802127,53.889137298159916],[-0.14422221388047043,53.89080427932199],[-0.14588888141450138,53.89163968011016],[-0.14588892841238604,53.893276216565084],[-0.15080557945214382,53.89747235543927],[-0.1508889156137861,53.89916613136087],[-0.15427780445448244,53.90080640872075],[-0.15419441032969455,53.901668581090284],[-0.155888860124504,53.90250019351537],[-0.15586114132931184,53.904140478516226],[-0.15919445048873115,53.90661239537328],[-0.16083337170676848,53.91249843599001],[-0.16249994633729004,53.91333392464103],[-0.16255557176734606,53.916637401982975],[-0.16583330129403573,53.9199714633651],[-0.1675555301819961,53.92583466814746],[-0.1725277649646389,53.9308052282242],[-0.1741944220876767,53.935001335408316],[-0.1758888785721577,53.93580630951322],[-0.17586108314851823,53.93749998839155],[-0.17755557808967626,53.938331598501925],[-0.17919442004007824,53.942501034397935],[-0.18088884441025121,53.94333265149218],[-0.18086106780632472,53.94664001049485],[-0.18255555818867278,53.94747164851056],[-0.18255552602654404,53.95000075870393],[-0.1842500353937925,53.950832325978546],[-0.18419445833277517,53.953277565124374],[-0.18586112817635272,53.95413972681704],[-0.1858610991026257,53.955833432267596],[-0.18752774616176995,53.956611613577756],[-0.18755554843940275,53.95914081138377],[-0.18916663748851642,53.95997237157022],[-0.1891388526093841,53.96163944000877],[-0.1925833212967866,53.96497344996215],[-0.19247218176422248,53.968334238702],[-0.19413889390427502,53.96916582517054],[-0.1958889324857439,53.97497177686893],[-0.19747222206616138,53.9758071765396],[-0.19755559886570556,53.977527614137735],[-0.1992500016314622,53.978305805758275],[-0.19922221743434196,53.98166653941022],[-0.200805575896088,53.98244476826634],[-0.20083335033756244,53.98497388818008],[-0.202527728073912,53.98580549098236],[-0.2025000288374512,53.987472533625066],[-0.20586110247032227,53.99080658191544],[-0.20583332072477442,53.99416735735009],[-0.20752777894944283,53.9949455164969],[-0.2075556025301472,53.99750136149868],[-0.20925000342974487,53.99835965807495],[-0.20930556596991942,54.00000000509671],[-0.21091665061943035,54.003334071631315],[-0.21086112763848675,54.00413890990612],[-0.2091667011992006,54.00502774395766],[-0.21086114798790084,54.00580596514248],[-0.21086108324346858,54.010028860248504],[-0.21255554780979982,54.01080702465825],[-0.21252779940176966,54.018333453711364],[-0.2142222156516675,54.01916500014306],[-0.2142222607832859,54.02500150914723],[-0.2159166432494873,54.02577587239194],[-0.21586111669094676,54.030803713592306],[-0.21425001798706086,54.03169634271248],[-0.21419440969421866,54.03830715776559],[-0.2125833268705963,54.03919602781842],[-0.21250002491722045,54.04333496253832],[-0.21088888712493503,54.04416653936528],[-0.21083330871007472,54.05666728693248],[-0.20913891142180238,54.05747220274659],[-0.2091389238893537,54.06166837919171],[-0.20752777994177932,54.062473261849114],[-0.2075277750949757,54.0641403106623],[-0.20247225920414885,54.0682792833972],[-0.1991944345188621,54.07249828349607],[-0.19588886235429065,54.074138627673115],[-0.1941666865122544,54.076667802966575],[-0.19083329166658983,54.07830431596214],[-0.19088891476995784,54.079166425262876],[-0.1883333597237422,54.07955553841087],[-0.18252778207381665,54.08336256937971],[-0.1808333502753296,54.08833311570539],[-0.1775000013186123,54.09164045524488],[-0.1700000170552458,54.09624864587619],[-0.16836111642191273,54.096221929482056],[-0.1583610985653156,54.100418078383605],[-0.15341666247887223,54.100360864477324],[-0.1483332907970358,54.10208512325232],[-0.14502776451058655,54.102054554801654],[-0.1433333735222661,54.1028595044002],[-0.1383611423811342,54.10291669341067],[-0.13666665141322787,54.10374833098152],[-0.13336107738725353,54.103778803570926],[-0.13166669144608262,54.102890013617596],[-0.11836108958475579,54.10289000073996],[-0.11500003573502514,54.103721626613655],[-0.11338883940749588,54.102890037742064],[-0.11011114586231023,54.10285948370809],[-0.10502774530342901,54.10458371601965],[-0.10172222113992663,54.10455703167742],[-0.09172226469341567,54.10705565646291],[-0.08672220648524322,54.10791778978709],[-0.07916668771193637,54.111667647582905],[-0.07758336084170739,54.115001637255446],[-0.0758611515987019,54.115806619053316],[-0.07758329558091505,54.11750030705093],[-0.07752781709513955,54.119945534850835],[-0.07999998837915029,54.122081727858735],[-0.08174996860468757,54.12205502325792],[-0.08672223027582378,54.1245842112209],[-0.08836112550937464,54.12455366404271],[-0.09169439907633069,54.12708283552855],[-0.09838892391115192,54.12874988238349],[-0.10175003286708521,54.13041687191241],[-0.1050833347953562,54.13039014432334],[-0.10669449398870223,54.13208391080674],[-0.1150555609971764,54.13205718128497],[-0.12169441025814305,54.13455578594076],[-0.12841664754130772,54.13455580658479],[-0.13422226813582774,54.13747408436559],[-0.13416663962806485,54.13827892806943],[-0.14166665388605504,54.141250575106575],[-0.15169447754920182,54.14372250156066],[-0.1549722492376214,54.14538959736295],[-0.15838890267913466,54.145416274698505],[-0.16838892134906017,54.151248934936724],[-0.17499995777188462,54.152889236316454],[-0.17838892132570439,54.15291597338709],[-0.1800833463560189,54.15375134391919],[-0.18505554075780442,54.15369415362815],[-0.18675000701142883,54.15458293610875],[-0.19005555729317747,54.154556311068035],[-0.1966388636191674,54.156250038218495],[-0.2016944243487664,54.15625001643535],[-0.20841665187940145,54.1578903222529],[-0.21138325215542889,54.157914284537036],[-0.21172226912687125,54.15791701848265],[-0.2183055364377175,54.15955730255113],[-0.22336110242060653,54.159557372427635],[-0.23333335148088738,54.16205598832518],[-0.25169442943680137,54.17122270156259],[-0.2533333685969443,54.17119597270418],[-0.2542222099049587,54.172473908938144],[-0.26422225869044746,54.17750170607576],[-0.26727049682079984,54.18017721818727],[-0.35,54.18],[-0.35,53.73224483986095]]]]},"id":"0","properties":{}}]}